[{"OBJECT_NAME":"KUIPER-00203","OBJECT_ID":"2026-030K","EPOCH":"2026-03-05T20:00:00.999360","MEAN_MOTION":15.22658852,"ECCENTRICITY":0.0011478,"INCLINATION":51.8819,"RA_OF_ASC_NODE":238.2396,"ARG_OF_PERICENTER":47.6304,"MEAN_ANOMALY":276.6812,"EPHEMERIS_TYPE":0,"CLASSIFICATION_TYPE":"U","NORAD_CAT_ID":67773,"ELEMENT_SET_NO":999,"REV_AT_EPOCH":306,"BSTAR":-0.061264,"MEAN_MOTION_DOT":-0.01321904,"MEAN_MOTION_DDOT":0},{"OBJECT_NAME":"KUIPER-00205","OBJECT_ID":"2026-030L","EPOCH":"2026-03-05T18:49:38.329824","MEAN_MOTION":15.36210653,"ECCENTRICITY":0.000291,"INCLINATION":51.8809,"RA_OF_ASC_NODE":237.8966,"ARG_OF_PERICENTER":10.4382,"MEAN_ANOMALY":349.6664,"EPHEMERIS_TYPE":0,"CLASSIFICATION_TYPE":"U","NORAD_CAT_ID":67774,"ELEMENT_SET_NO":999,"REV_AT_EPOCH":449,"BSTAR":0.00077285,"MEAN_MOTION_DOT":0.00027412,"MEAN_MOTION_DDOT":0},{"OBJECT_NAME":"KUIPER-00208","OBJECT_ID":"2026-030M","EPOCH":"2026-03-05T18:13:02.503200","MEAN_MOTION":15.32378848,"ECCENTRICITY":0.0014598,"INCLINATION":51.8832,"RA_OF_ASC_NODE":238.4719,"ARG_OF_PERICENTER":49.5668,"MEAN_ANOMALY":310.6588,"EPHEMERIS_TYPE":0,"CLASSIFICATION_TYPE":"U","NORAD_CAT_ID":67775,"ELEMENT_SET_NO":999,"REV_AT_EPOCH":448,"BSTAR":0.0011804,"MEAN_MOTION_DOT":0.00037381,"MEAN_MOTION_DDOT":0},{"OBJECT_NAME":"KUIPER-00209","OBJECT_ID":"2026-030N","EPOCH":"2026-03-05T20:00:00.999360","MEAN_MOTION":15.30440122,"ECCENTRICITY":0.0013055,"INCLINATION":51.8821,"RA_OF_ASC_NODE":238.1783,"ARG_OF_PERICENTER":57.1184,"MEAN_ANOMALY":321.2066,"EPHEMERIS_TYPE":0,"CLASSIFICATION_TYPE":"U","NORAD_CAT_ID":67776,"ELEMENT_SET_NO":999,"REV_AT_EPOCH":389,"BSTAR":-0.0074769,"MEAN_MOTION_DOT":-0.00217988,"MEAN_MOTION_DDOT":0},{"OBJECT_NAME":"KUIPER-00213","OBJECT_ID":"2026-030P","EPOCH":"2026-03-05T18:13:57.559008","MEAN_MOTION":15.32579732,"ECCENTRICITY":0.0014887,"INCLINATION":51.8805,"RA_OF_ASC_NODE":238.4668,"ARG_OF_PERICENTER":53.463,"MEAN_ANOMALY":306.7723,"EPHEMERIS_TYPE":0,"CLASSIFICATION_TYPE":"U","NORAD_CAT_ID":67777,"ELEMENT_SET_NO":999,"REV_AT_EPOCH":448,"BSTAR":0.00072412,"MEAN_MOTION_DOT":0.00022891,"MEAN_MOTION_DDOT":0},{"OBJECT_NAME":"KUIPER-00214","OBJECT_ID":"2026-030Q","EPOCH":"2026-03-05T18:40:18.474240","MEAN_MOTION":15.36565382,"ECCENTRICITY":4.36e-5,"INCLINATION":51.8838,"RA_OF_ASC_NODE":237.8617,"ARG_OF_PERICENTER":200.9055,"MEAN_ANOMALY":159.1914,"EPHEMERIS_TYPE":0,"CLASSIFICATION_TYPE":"U","NORAD_CAT_ID":67778,"ELEMENT_SET_NO":999,"REV_AT_EPOCH":449,"BSTAR":0.0010544,"MEAN_MOTION_DOT":0.00038022,"MEAN_MOTION_DDOT":0},{"OBJECT_NAME":"KUIPER-00215","OBJECT_ID":"2026-030R","EPOCH":"2026-03-05T19:25:18.507072","MEAN_MOTION":15.34294805,"ECCENTRICITY":0.0010194,"INCLINATION":51.885,"RA_OF_ASC_NODE":238.0638,"ARG_OF_PERICENTER":48.021,"MEAN_ANOMALY":312.1643,"EPHEMERIS_TYPE":0,"CLASSIFICATION_TYPE":"U","NORAD_CAT_ID":67779,"ELEMENT_SET_NO":999,"REV_AT_EPOCH":449,"BSTAR":0.001115,"MEAN_MOTION_DOT":0.00037447,"MEAN_MOTION_DDOT":0},{"OBJECT_NAME":"KUIPER-00218","OBJECT_ID":"2026-030S","EPOCH":"2026-03-05T19:11:15.530784","MEAN_MOTION":15.35003216,"ECCENTRICITY":0.0006624,"INCLINATION":51.8838,"RA_OF_ASC_NODE":237.9977,"ARG_OF_PERICENTER":40.1807,"MEAN_ANOMALY":319.9667,"EPHEMERIS_TYPE":0,"CLASSIFICATION_TYPE":"U","NORAD_CAT_ID":67780,"ELEMENT_SET_NO":999,"REV_AT_EPOCH":449,"BSTAR":0.00071026,"MEAN_MOTION_DOT":0.00024197,"MEAN_MOTION_DDOT":0},{"OBJECT_NAME":"KUIPER-00220","OBJECT_ID":"2026-030T","EPOCH":"2026-03-05T19:20:12.460128","MEAN_MOTION":15.34590132,"ECCENTRICITY":0.000851,"INCLINATION":51.8821,"RA_OF_ASC_NODE":238.033,"ARG_OF_PERICENTER":44.2618,"MEAN_ANOMALY":315.9047,"EPHEMERIS_TYPE":0,"CLASSIFICATION_TYPE":"U","NORAD_CAT_ID":67781,"ELEMENT_SET_NO":999,"REV_AT_EPOCH":449,"BSTAR":0.0010173,"MEAN_MOTION_DOT":0.00034425,"MEAN_MOTION_DDOT":0},{"OBJECT_NAME":"KUIPER-00222","OBJECT_ID":"2026-030U","EPOCH":"2026-03-05T19:53:09.076992","MEAN_MOTION":15.32415883,"ECCENTRICITY":0.0017356,"INCLINATION":51.8801,"RA_OF_ASC_NODE":238.1764,"ARG_OF_PERICENTER":51.653,"MEAN_ANOMALY":308.6012,"EPHEMERIS_TYPE":0,"CLASSIFICATION_TYPE":"U","NORAD_CAT_ID":67782,"ELEMENT_SET_NO":999,"REV_AT_EPOCH":449,"BSTAR":0.00055689,"MEAN_MOTION_DOT":0.00017433,"MEAN_MOTION_DDOT":0},{"OBJECT_NAME":"KUIPER-00223","OBJECT_ID":"2026-030V","EPOCH":"2026-03-05T17:56:21.261120","MEAN_MOTION":15.34030274,"ECCENTRICITY":0.0012219,"INCLINATION":51.883,"RA_OF_ASC_NODE":238.3941,"ARG_OF_PERICENTER":48.0639,"MEAN_ANOMALY":312.1386,"EPHEMERIS_TYPE":0,"CLASSIFICATION_TYPE":"U","NORAD_CAT_ID":67783,"ELEMENT_SET_NO":999,"REV_AT_EPOCH":448,"BSTAR":-8.7492e-5,"MEAN_MOTION_DOT":-3.315e-5,"MEAN_MOTION_DDOT":0},{"OBJECT_NAME":"KUIPER-00225","OBJECT_ID":"2026-030W","EPOCH":"2026-03-05T18:58:06.341952","MEAN_MOTION":15.35725483,"ECCENTRICITY":0.0004195,"INCLINATION":51.8811,"RA_OF_ASC_NODE":237.9338,"ARG_OF_PERICENTER":29.021,"MEAN_ANOMALY":331.1008,"EPHEMERIS_TYPE":0,"CLASSIFICATION_TYPE":"U","NORAD_CAT_ID":67784,"ELEMENT_SET_NO":999,"REV_AT_EPOCH":449,"BSTAR":0.00071156,"MEAN_MOTION_DOT":0.00024808,"MEAN_MOTION_DDOT":0},{"OBJECT_NAME":"KUIPER-00226","OBJECT_ID":"2026-030X","EPOCH":"2026-03-05T20:09:49.295232","MEAN_MOTION":15.31216537,"ECCENTRICITY":0.0019925,"INCLINATION":51.8807,"RA_OF_ASC_NODE":238.2523,"ARG_OF_PERICENTER":62.2476,"MEAN_ANOMALY":298.0526,"EPHEMERIS_TYPE":0,"CLASSIFICATION_TYPE":"U","NORAD_CAT_ID":67785,"ELEMENT_SET_NO":999,"REV_AT_EPOCH":449,"BSTAR":0.00081539,"MEAN_MOTION_DOT":0.00024806,"MEAN_MOTION_DDOT":0},{"OBJECT_NAME":"KUIPER-00259","OBJECT_ID":"2026-030Y","EPOCH":"2026-03-05T19:14:13.730784","MEAN_MOTION":15.34901234,"ECCENTRICITY":0.0008309,"INCLINATION":51.8814,"RA_OF_ASC_NODE":238.0047,"ARG_OF_PERICENTER":38.8348,"MEAN_ANOMALY":321.3234,"EPHEMERIS_TYPE":0,"CLASSIFICATION_TYPE":"U","NORAD_CAT_ID":67786,"ELEMENT_SET_NO":999,"REV_AT_EPOCH":449,"BSTAR":0.00070755,"MEAN_MOTION_DOT":0.00024032,"MEAN_MOTION_DDOT":0},{"OBJECT_NAME":"KUIPER-00260","OBJECT_ID":"2026-030Z","EPOCH":"2026-03-05T18:46:51.930336","MEAN_MOTION":15.36295793,"ECCENTRICITY":0.0001098,"INCLINATION":51.8795,"RA_OF_ASC_NODE":237.8821,"ARG_OF_PERICENTER":52.7208,"MEAN_ANOMALY":307.3878,"EPHEMERIS_TYPE":0,"CLASSIFICATION_TYPE":"U","NORAD_CAT_ID":67787,"ELEMENT_SET_NO":999,"REV_AT_EPOCH":440,"BSTAR":0.00093999,"MEAN_MOTION_DOT":0.00033541,"MEAN_MOTION_DDOT":0},{"OBJECT_NAME":"KUIPER-00262","OBJECT_ID":"2026-030AA","EPOCH":"2026-03-05T18:41:41.140896","MEAN_MOTION":15.3661142,"ECCENTRICITY":3.26e-5,"INCLINATION":51.8808,"RA_OF_ASC_NODE":237.8617,"ARG_OF_PERICENTER":124.0672,"MEAN_ANOMALY":236.0346,"EPHEMERIS_TYPE":0,"CLASSIFICATION_TYPE":"U","NORAD_CAT_ID":67788,"ELEMENT_SET_NO":999,"REV_AT_EPOCH":449,"BSTAR":0.00096216,"MEAN_MOTION_DOT":0.000347,"MEAN_MOTION_DDOT":0},{"OBJECT_NAME":"KUIPER-00266","OBJECT_ID":"2026-030AB","EPOCH":"2026-03-05T18:42:32.358816","MEAN_MOTION":15.30931877,"ECCENTRICITY":0.0022539,"INCLINATION":51.8805,"RA_OF_ASC_NODE":238.5912,"ARG_OF_PERICENTER":62.0417,"MEAN_ANOMALY":298.2845,"EPHEMERIS_TYPE":0,"CLASSIFICATION_TYPE":"U","NORAD_CAT_ID":67789,"ELEMENT_SET_NO":999,"REV_AT_EPOCH":448,"BSTAR":0.00013661,"MEAN_MOTION_DOT":3.799e-5,"MEAN_MOTION_DDOT":0}]
