KUIPER-00203            
1 67773U 26030K   26064.83334490 -.01321904  00000+0 -61264-1 0  9994
2 67773  51.8819 238.2396 0011478  47.6304 276.6812 15.22658852  3067
KUIPER-00205            
1 67774U 26030L   26064.78447141  .00027412  00000+0  77285-3 0  9993
2 67774  51.8809 237.8966 0002910  10.4382 349.6664 15.36210653  4492
KUIPER-00208            
1 67775U 26030M   26064.75905675  .00037381  00000+0  11804-2 0  9992
2 67775  51.8832 238.4719 0014598  49.5668 310.6588 15.32378848  4486
KUIPER-00209            
1 67776U 26030N   26064.83334490 -.00217988  00000+0 -74769-2 0  9997
2 67776  51.8821 238.1783 0013055  57.1184 321.2066 15.30440122  3894
KUIPER-00213            
1 67777U 26030P   26064.75969397  .00022891  00000+0  72412-3 0  9998
2 67777  51.8805 238.4668 0014887  53.4630 306.7723 15.32579732  4487
KUIPER-00214            
1 67778U 26030Q   26064.77799160  .00038022  00000+0  10544-2 0  9990
2 67778  51.8838 237.8617 0000436 200.9055 159.1914 15.36565382  4499
KUIPER-00215            
1 67779U 26030R   26064.80924198  .00037447  00000+0  11150-2 0  9990
2 67779  51.8850 238.0638 0010194  48.0210 312.1643 15.34294805  4493
KUIPER-00218            
1 67780U 26030S   26064.79948531  .00024197  00000+0  71026-3 0  9994
2 67780  51.8838 237.9977 0006624  40.1807 319.9667 15.35003216  4499
KUIPER-00220            
1 67781U 26030T   26064.80569977  .00034425  00000+0  10173-2 0  9990
2 67781  51.8821 238.0330 0008510  44.2618 315.9047 15.34590132  4493
KUIPER-00222            
1 67782U 26030U   26064.82857728  .00017433  00000+0  55689-3 0  9999
2 67782  51.8801 238.1764 0017356  51.6530 308.6012 15.32415883  4495
KUIPER-00223            
1 67783U 26030V   26064.74746830 -.00003315  00000+0 -87492-4 0  9996
2 67783  51.8830 238.3941 0012219  48.0639 312.1386 15.34030274  4482
KUIPER-00225            
1 67784U 26030W   26064.79035118  .00024808  00000+0  71156-3 0  9999
2 67784  51.8811 237.9338 0004195  29.0210 331.1008 15.35725483  4492
KUIPER-00226            
1 67785U 26030X   26064.84015388  .00024806  00000+0  81539-3 0  9997
2 67785  51.8807 238.2523 0019925  62.2476 298.0526 15.31216537  4495
KUIPER-00259            
1 67786U 26030Y   26064.80154781  .00024032  00000+0  70755-3 0  9994
2 67786  51.8814 238.0047 0008309  38.8348 321.3234 15.34901234  4498
KUIPER-00260            
1 67787U 26030Z   26064.78254549  .00033541  00000+0  93999-3 0  9995
2 67787  51.8795 237.8821 0001098  52.7208 307.3878 15.36295793  4409
KUIPER-00262            
1 67788U 26030AA  26064.77894839  .00034700  00000+0  96216-3 0  9990
2 67788  51.8808 237.8617 0000326 124.0672 236.0346 15.36611420  4495
KUIPER-00266            
1 67789U 26030AB  26064.77954119  .00003799  00000+0  13661-3 0  9996
2 67789  51.8805 238.5912 0022539  62.0417 298.2845 15.30931877  4485
